[{"OBJECT_NAME":"STARLINK-34448","OBJECT_ID":"2025-123A","EPOCH":"2026-03-09T17:24:41.918688","MEAN_MOTION":14.98329161,"ECCENTRICITY":0.00030031,"INCLINATION":70.0023,"RA_OF_ASC_NODE":194.3817,"ARG_OF_PERICENTER":267.7834,"MEAN_ANOMALY":92.2981,"EPHEMERIS_TYPE":0,"CLASSIFICATION_TYPE":"U","NORAD_CAT_ID":64291,"ELEMENT_SET_NO":999,"REV_AT_EPOCH":4284,"BSTAR":0.00014490269,"MEAN_MOTION_DOT":1.636e-5,"MEAN_MOTION_DDOT":0},{"OBJECT_NAME":"COSMOS 2251 DEB","OBJECT_ID":"1993-036SS","EPOCH":"2026-03-09T22:59:54.978144","MEAN_MOTION":15.02003149,"ECCENTRICITY":0.00206055,"INCLINATION":74.0288,"RA_OF_ASC_NODE":253.6967,"ARG_OF_PERICENTER":277.4018,"MEAN_ANOMALY":234.4946,"EPHEMERIS_TYPE":0,"CLASSIFICATION_TYPE":"U","NORAD_CAT_ID":34449,"ELEMENT_SET_NO":999,"REV_AT_EPOCH":89999,"BSTAR":0.0029470254,"MEAN_MOTION_DOT":0.00038984,"MEAN_MOTION_DDOT":0}]
